NORAD_CAT_ID,OBJECT_NAME,OBJECT_TYPE,EPOCH,MEAN_MOTION,ECCENTRICITY,INCLINATION,RA_OF_ASC_NODE,ARG_OF_PERICENTER,MEAN_ANOMALY,BSTAR,MEAN_MOTION_DOT,MEAN_MOTION_DDOT,TLE_LINE0,TLE_LINE1,TLE_LINE2,SEMIMAJOR_AXIS,PERIOD,APOGEE,PERIGEE,DECAYED
52358.0,STARLINK-3837,PAYLOAD,2022-05-16 12:00:00,15.73103374,0.0001129,53.2141,354.0271,111.004,39.9952,0.00063135,0.00088556,0.0,0 STARLINK-3837,1 52358U 22045AD  22136.50001157  .00088556  00000-0  63135-3 0  9992,2 52358  53.2141 354.0271 0001129 111.0040  39.9952 15.73103374  5166,6728.170999999999,91.539,350.795,349.276,0.0
52358.0,STARLINK-3837,PAYLOAD,2022-05-16 14:00:01,15.73137759,0.0001181,53.2144,353.6147,110.7789,152.4205,0.00028318,0.00039202,0.0,0 STARLINK-3837,1 52358U 22045AD  22136.58334491  .00039202  00000-0  28318-3 0  9998,2 52358  53.2144 353.6147 0001181 110.7789 152.4205 15.73137759  1308,6728.073,91.537,350.732,349.14300000000014,0.0
52358.0,STARLINK-3837,PAYLOAD,2022-05-16 22:00:00,15.73153987,0.0001244,53.2141,351.9672,97.59,254.5195,0.00019278,0.00026468,0.0,0 STARLINK-3837,1 52358U 22045AD  22136.91667824  .00026468  00000-0  19278-3 0  9999,2 52358  53.2141 351.9672 0001244  97.5900 254.5195 15.73153987  1309,6728.026,91.536,350.728,349.05400000000014,0.0
52358.0,STARLINK-3837,PAYLOAD,2022-05-17 06:00:00,15.7319279,0.0001202,53.2134,350.3166,101.505,339.48,0.00024896,0.00034452,0.0,0 STARLINK-3837,1 52358U 22045AD  22137.25001157  .00034452  00000-0  24896-3 0  9992,2 52358  53.2134 350.3166 0001202 101.5050 339.4800 15.73192790  5280,6727.916,91.534,350.589,348.972,0.0
52358.0,STARLINK-3837,PAYLOAD,2022-05-17 14:00:01,15.73241858,0.0001328,53.2137,348.6658,110.8444,59.129,-0.00019798,-0.00028362,0.0,0 STARLINK-3837,1 52358U 22045AD  22137.58335648 -.00028362  00000-0 -19798-3 0  9993,2 52358  53.2137 348.6658 0001328 110.8444  59.1290 15.73241858  1306,6727.776,91.531,350.534,348.747,0.0
52358.0,STARLINK-3837,PAYLOAD,2022-05-17 20:00:01,15.7323737,0.0001234,53.2136,347.4303,101.612,45.0317,-0.00045646,-0.00064295,0.0,0 STARLINK-3837,1 52358U 22045AD  22137.83334491 -.00064295  00000-0 -45646-3 0  9992,2 52358  53.2136 347.4303 0001234 101.6120  45.0317 15.73237370  5373,6727.7890000000025,91.531,350.4840000000001,348.8230000000001,0.0
52358.0,STARLINK-3837,PAYLOAD,2022-05-17 22:00:01,15.73215007,0.0001230999999999,53.2138,347.0183,98.5323,160.4199,-0.00018376,-0.00026345,0.0,0 STARLINK-3837,1 52358U 22045AD  22137.91668981 -.00026345  00000-0 -18376-3 0  9999,2 52358  53.2138 347.0183 0001231  98.5323 160.4199 15.73215007  1305,6727.852,91.532,350.546,348.889,0.0
52358.0,STARLINK-3837,PAYLOAD,2022-05-18 06:00:00,15.73237153,0.0001094,53.2139,345.3674,103.3455,244.4837,-0.00049681,-0.00069876,0.0,0 STARLINK-3837,1 52358U 22045AD  22138.25001157 -.00069876  00000-0 -49681-3 0  9992,2 52358  53.2139 345.3674 0001094 103.3455 244.4837 15.73237153  5436,6727.7890000000025,91.531,350.39,348.918,0.0
52358.0,STARLINK-3837,PAYLOAD,2022-05-18 12:00:00,15.73166174,0.0001202,53.214,344.1288,107.605,216.9493,0.00084125,0.00118956,0.0,0 STARLINK-3837,1 52358U 22045AD  22138.50001157  .00118956  00000-0  84125-3 0  9994,2 52358  53.2140 344.1288 0001202 107.6050 216.9493 15.73166174  5475,6727.9919999999975,91.535,350.665,349.048,0.0
52358.0,STARLINK-3837,PAYLOAD,2022-05-18 14:00:01,15.73215122,0.000126,53.2143,343.7167,107.1652,329.6063,0.00033233,0.00046308,0.0,0 STARLINK-3837,1 52358U 22045AD  22138.58334491  .00046308  00000-0  33233-3 0  9997,2 52358  53.2143 343.7167 0001260 107.1652 329.6063 15.73215122  1307,6727.852,91.532,350.565,348.869,0.0
52358.0,STARLINK-3837,PAYLOAD,2022-05-18 20:00:01,15.7326474,0.0001118,53.2141,342.4811,97.0247,316.4593,-0.00081303,-0.00113507,0.0,0 STARLINK-3837,1 52358U 22045AD  22138.83334491 -.00113507  00000-0 -81303-3 0  9994,2 52358  53.2141 342.4811 0001118  97.0247 316.4593 15.73264740  5537,6727.7109999999975,91.529,350.32800000000015,348.8230000000001,0.0
52358.0,STARLINK-3837,PAYLOAD,2022-05-18 22:00:00,15.73228335,0.0001117,53.2142,342.069,93.3196,72.4173,-0.00049874,-0.00070117,0.0,0 STARLINK-3837,1 52358U 22045AD  22138.91667824 -.00070117  00000-0 -49874-3 0  9998,2 52358  53.2142 342.0690 0001117  93.3196  72.4173 15.73228335  1304,6727.814,91.532,350.431,348.92800000000005,0.0
52358.0,STARLINK-3837,PAYLOAD,2022-05-19 06:00:00,15.73198836,0.0001200999999999,53.2136,340.418,100.7816,153.8811,-0.0004849,-0.00068119,0.0,0 STARLINK-3837,1 52358U 22045AD  22139.25001157 -.00068119  00000-0 -48490-3 0  9999,2 52358  53.2136 340.4180 0001201 100.7816 153.8811 15.73198836  5599,6727.898,91.533,350.57199999999995,348.955,0.0
52358.0,STARLINK-3837,PAYLOAD,2022-05-19 14:00:01,15.73150145,0.0001319,53.2139,338.7678,106.5577,237.0684,0.00055458,0.00077768,0.0,0 STARLINK-3837,1 52358U 22045AD  22139.58335648  .00077768  00000-0  55458-3 0  9990,2 52358  53.2139 338.7678 0001319 106.5577 237.0684 15.73150145  1301,6728.0369999999975,91.536,350.79,349.015,0.0
52358.0,STARLINK-3837,PAYLOAD,2022-05-19 22:00:00,15.73219531,0.0001133,53.214,337.1204,95.3207,337.152,0.00020437,0.00028182,0.0,0 STARLINK-3837,1 52358U 22045AD  22139.91667824  .00028182  00000-0  20437-3 0  9996,2 52358  53.2140 337.1204 0001133  95.3207 337.1520 15.73219531  5704,6727.839,91.532,350.467,348.94199999999995,0.0
52358.0,STARLINK-3837,PAYLOAD,2022-05-20 14:00:01,15.73256658,0.0001242,53.2146,333.8189,101.8822,148.5152,-0.00068836,-0.0009636,0.0,0 STARLINK-3837,1 52358U 22045AD  22140.58334491 -.00096360  00000-0 -68836-3 0  9992,2 52358  53.2146 333.8189 0001242 101.8822 148.5152 15.73256658  5809,6727.734,91.53,350.434,348.76300000000015,0.0
52358.0,STARLINK-3837,PAYLOAD,2022-05-20 22:00:00,15.73185691,0.0001246,53.2144,332.1713,89.008,250.3562,-8.0586e-05,-0.00011906,0.0,0 STARLINK-3837,1 52358U 22045AD  22140.91667824 -.00011906  00000-0 -80586-4 0  9998,2 52358  53.2144 332.1713 0001246  89.0080 250.3562 15.73185691  1305,6727.936,91.534,350.639,348.963,0.0
52358.0,STARLINK-3837,PAYLOAD,2022-05-21 06:00:00,15.73196959,0.0001127,53.214,330.5203,96.1184,332.2048,7.2408e-05,9.552e-05,0.0,0 STARLINK-3837,1 52358U 22045AD  22141.25001157  .00009552  00000-0  72408-4 0  9993,2 52358  53.2140 330.5203 0001127  96.1184 332.2048 15.73196959  5918,6727.904,91.533,350.527,349.011,0.0
52358.0,STARLINK-3837,PAYLOAD,2022-05-21 14:00:01,15.73190663,0.0001223,53.2141,328.8703,100.2039,57.091,4.5802e-06,2.3e-07,0.0,0 STARLINK-3837,1 52358U 22045AD  22141.58335648  .00000023  00000-0  45802-5 0  9997,2 52358  53.2141 328.8703 0001223 100.2039  57.0910 15.73190663  5968,6727.922,91.534,350.61,348.964,0.0
52358.0,STARLINK-3837,PAYLOAD,2022-05-21 22:00:00,15.73150365,0.0001047,53.2141,327.2229,83.0456,163.1367,0.00066811,0.00093999,0.0,0 STARLINK-3837,1 52358U 22045AD  22141.91667824  .00093999  00000-0  66811-3 0  9993,2 52358  53.2141 327.2229 0001047  83.0456 163.1367 15.73150365  1303,6728.0369999999975,91.536,350.606,349.19699999999995,0.0
52358.0,STARLINK-3837,PAYLOAD,2022-05-22 06:00:00,15.73237743,9.85e-05,53.2142,325.5715,91.3535,243.7244,-7.5493e-05,-0.00011217,0.0,0 STARLINK-3837,1 52358U 22045AD  22142.25001157 -.00011217  00000-0 -75493-4 0  9994,2 52358  53.2142 325.5715 0000985  91.3535 243.7244 15.73237743  6068,6727.788000000001,91.531,350.315,348.99,0.0
52358.0,STARLINK-3837,PAYLOAD,2022-05-22 14:00:01,15.732368,0.0001239,53.2145,323.9217,91.2664,332.7594,-0.00072055,-0.001007,0.0,0 STARLINK-3837,1 52358U 22045AD  22142.58334491 -.00100700  00000-0 -72055-3 0  9996,2 52358  53.2145 323.9217 0001239  91.2664 332.7594 15.73236800  6122,6727.79,91.531,350.48900000000015,348.82199999999995,0.0
52358.0,STARLINK-3837,PAYLOAD,2022-05-22 22:00:01,15.731258,0.0001185,53.2142,322.274,76.9535,76.0977,0.00068085,0.00095722,0.0,0 STARLINK-3837,1 52358U 22045AD  22142.91668981  .00095722  00000-0  68085-3 0  9990,2 52358  53.2142 322.2740 0001185  76.9535  76.0977 15.73125800  6174,6728.107,91.537,350.769,349.1740000000001,0.0
52358.0,STARLINK-3837,PAYLOAD,2022-05-23 14:00:01,15.73264611,0.0001137,53.2139,318.9734,88.0109,242.7653,-0.00076979,-0.00107578,0.0,0 STARLINK-3837,1 52358U 22045AD  22143.58334491 -.00107578  00000-0 -76979-3 0  9996,2 52358  53.2139 318.9734 0001137  88.0109 242.7653 15.73264611  1300,6727.7109999999975,91.529,350.341,348.811,0.0
52358.0,STARLINK-3837,PAYLOAD,2022-05-23 16:00:00,15.73236214,0.0001156,53.2137,318.5618,83.6735,359.339,-0.00073097,-0.00102126,0.0,0 STARLINK-3837,1 52358U 22045AD  22143.66667824 -.00102126  00000-0 -73097-3 0  9996,2 52358  53.2137 318.5618 0001156  83.6735 359.3390 15.73236214  6296,6727.792,91.531,350.435,348.879,0.0
52358.0,STARLINK-3837,PAYLOAD,2022-05-23 22:00:01,15.73153283,0.0001149,53.2137,317.3256,74.315,345.4762,-5.2889e-06,-1.36e-05,0.0,0 STARLINK-3837,1 52358U 22045AD  22143.91668981 -.00001360  00000-0 -52889-5 0  9995,2 52358  53.2137 317.3256 0001149  74.3150 345.4762 15.73153283  1301,6728.028,91.536,350.666,349.12,0.0
52358.0,STARLINK-3837,PAYLOAD,2022-05-24 04:00:00,15.73239053,0.0001012,53.2141,316.0873,74.6644,321.7587,-0.00034342,-0.00048618,0.0,0 STARLINK-3837,1 52358U 22045AD  22144.16667824 -.00048618  00000-0 -34342-3 0  9997,2 52358  53.2141 316.0873 0001012  74.6644 321.7587 15.73239053  6360,6727.784000000002,91.531,350.33,348.968,0.0
52358.0,STARLINK-3837,PAYLOAD,2022-05-24 14:00:01,15.73229535,0.0001132,53.2141,314.0246,80.3387,157.2412,-0.00038807,-0.00054797,0.0,0 STARLINK-3837,1 52358U 22045AD  22144.58334491 -.00054797  00000-0 -38807-3 0  9999,2 52358  53.2141 314.0246 0001132  80.3387 157.2412 15.73229535  1305,6727.811,91.531,350.43800000000016,348.914,0.0
52358.0,STARLINK-3837,PAYLOAD,2022-05-24 22:00:00,15.73174999,0.0001117,53.2136,312.3766,60.4918,266.0515,0.00047267,0.00066169,0.0,0 STARLINK-3837,1 52358U 22045AD  22144.91667824  .00066169  00000-0  47267-3 0  9999,2 52358  53.2136 312.3766 0001117  60.4918 266.0515 15.73174999  6489,6727.965999999999,91.535,350.583,349.08,0.0
